[
    {
        "Altitude(m)": 571842.6839376017,
        "Argument of Periapsis(deg)": 0.013245982221427002,
        "Eccentricity": 0.0,
        "Inclination(deg)": 53.0,
        "Latitude(deg)": -53.14488537201061,
        "Longitude(deg)": -17.758083832365674,
        "Mean Anomaly(deg)": -90.7259142648448,
        "RAAN(deg)": 174.98028673705602,
        "Satellite Name": "Starlink Shell 1 785",
        "Satellite Number": 785,
        "Semi-Major Axis(m)": 6931778.249405717,
        "Time(s)": 380
    },
    {
        "Altitude(m)": 571844.8231826631,
        "Argument of Periapsis(deg)": 0.013594560700938237,
        "Eccentricity": 0.0,
        "Inclination(deg)": 53.0,
        "Latitude(deg)": -53.15064648645423,
        "Longitude(deg)": -16.760743801146894,
        "Mean Anomaly(deg)": -90.09908306128816,
        "RAAN(deg)": 174.97976796697856,
        "Satellite Name": "Starlink Shell 1 785",
        "Satellite Number": 785,
        "Semi-Major Axis(m)": 6931778.249405717,
        "Time(s)": 390
    },
    {
        "Altitude(m)": 571843.4813065281,
        "Argument of Periapsis(deg)": 0.013943139180449475,
        "Eccentricity": 0.0,
        "Inclination(deg)": 53.0,
        "Latitude(deg)": -53.14735344244617,
        "Longitude(deg)": -15.763344465224732,
        "Mean Anomaly(deg)": -89.47225185773142,
        "RAAN(deg)": 174.97924919690107,
        "Satellite Name": "Starlink Shell 1 785",
        "Satellite Number": 785,
        "Semi-Major Axis(m)": 6931778.249405717,
        "Time(s)": 400
    },
    {
        "Altitude(m)": 571838.6588234963,
        "Argument of Periapsis(deg)": 0.014291717659960712,
        "Eccentricity": 0.0,
        "Inclination(deg)": 53.0,
        "Latitude(deg)": -53.13500868317301,
        "Longitude(deg)": -14.766321515567787,
        "Mean Anomaly(deg)": -88.84542065417472,
        "RAAN(deg)": 174.97873042682363,
        "Satellite Name": "Starlink Shell 1 785",
        "Satellite Number": 785,
        "Semi-Major Axis(m)": 6931778.249405717,
        "Time(s)": 410
    },
    {
        "Altitude(m)": 571830.3576373464,
        "Argument of Periapsis(deg)": 0.014640296139471948,
        "Eccentricity": 0.0,
        "Inclination(deg)": 53.0,
        "Latitude(deg)": -53.11362136144935,
        "Longitude(deg)": -13.77011002105473,
        "Mean Anomaly(deg)": -88.21858945061797,
        "RAAN(deg)": 174.97821165674614,
        "Satellite Name": "Starlink Shell 1 785",
        "Satellite Number": 785,
        "Semi-Major Axis(m)": 6931778.249405717,
        "Time(s)": 420
    },
    {
        "Altitude(m)": 571818.5810405039,
        "Argument of Periapsis(deg)": 0.014988874618983185,
        "Eccentricity": 0.0,
        "Inclination(deg)": 53.0,
        "Latitude(deg)": -53.08320730620007,
        "Longitude(deg)": -12.775142628097342,
        "Mean Anomaly(deg)": -87.59175824706129,
        "RAAN(deg)": 174.97769288666868,
        "Satellite Name": "Starlink Shell 1 785",
        "Satellite Number": 785,
        "Semi-Major Axis(m)": 6931778.249405717,
        "Time(s)": 430
    },
    {
        "Altitude(m)": 571803.3337126275,
        "Argument of Periapsis(deg)": 0.015337453098494424,
        "Eccentricity": 0.0,
        "Inclination(deg)": 53.0,
        "Latitude(deg)": -53.04378896467289,
        "Longitude(deg)": -11.781847778022163,
        "Mean Anomaly(deg)": -86.96492704350455,
        "RAAN(deg)": 174.9771741165912,
        "Satellite Name": "Starlink Shell 1 785",
        "Satellite Number": 785,
        "Semi-Major Axis(m)": 6931778.249405717,
        "Time(s)": 440
    },
    {
        "Altitude(m)": 571784.6217185791,
        "Argument of Periapsis(deg)": 0.01568603157800566,
        "Eccentricity": 0.0,
        "Inclination(deg)": 53.0,
        "Latitude(deg)": -52.99539532087768,
        "Longitude(deg)": -10.790649464323732,
        "Mean Anomaly(deg)": -86.33809583994785,
        "RAAN(deg)": 174.97665534651372,
        "Satellite Name": "Starlink Shell 1 785",
        "Satellite Number": 785,
        "Semi-Major Axis(m)": 6931778.249405717,
        "Time(s)": 450
    },
    {
        "Altitude(m)": 571762.4525058212,
        "Argument of Periapsis(deg)": 0.0160346100575169,
        "Eccentricity": 0.0,
        "Inclination(deg)": 53.0,
        "Latitude(deg)": -52.938061790938946,
        "Longitude(deg)": -9.801965512906092,
        "Mean Anomaly(deg)": -85.71126463639112,
        "RAAN(deg)": 174.97613657643623,
        "Satellite Name": "Starlink Shell 1 785",
        "Satellite Number": 785,
        "Semi-Major Axis(m)": 6931778.249405717,
        "Time(s)": 460
    },
    {
        "Altitude(m)": 571736.8349011912,
        "Argument of Periapsis(deg)": 0.016383188537028134,
        "Eccentricity": 0.0,
        "Inclination(deg)": 53.0,
        "Latitude(deg)": -52.87183009624465,
        "Longitude(deg)": -8.816205906576975,
        "Mean Anomaly(deg)": -85.08443343283437,
        "RAAN(deg)": 174.9756178063588,
        "Satellite Name": "Starlink Shell 1 785",
        "Satellite Number": 785,
        "Semi-Major Axis(m)": 6931778.249405717,
        "Time(s)": 470
    },
    {
        "Altitude(m)": 571707.7791070772,
        "Argument of Periapsis(deg)": 0.01673176701653937,
        "Eccentricity": 0.0,
        "Inclination(deg)": 53.0,
        "Latitude(deg)": -52.79674811544838,
        "Longitude(deg)": -7.833772674467547,
        "Mean Anomaly(deg)": -84.45760222927771,
        "RAAN(deg)": 174.9750990362813,
        "Satellite Name": "Starlink Shell 1 785",
        "Satellite Number": 785,
        "Semi-Major Axis(m)": 6931778.249405717,
        "Time(s)": 480
    },
    {
        "Altitude(m)": 571675.2966970389,
        "Argument of Periapsis(deg)": 0.017080345496050607,
        "Eccentricity": 0.0,
        "Inclination(deg)": 53.0,
        "Latitude(deg)": -52.7128697165336,
        "Longitude(deg)": -6.855058327746124,
        "Mean Anomaly(deg)": -83.83077102572099,
        "RAAN(deg)": 174.97458026620384,
        "Satellite Name": "Starlink Shell 1 785",
        "Satellite Number": 785,
        "Semi-Major Axis(m)": 6931778.249405717,
        "Time(s)": 490
    },
    {
        "Altitude(m)": 571639.4006107672,
        "Argument of Periapsis(deg)": 0.017428923975561842,
        "Eccentricity": 0.0,
        "Inclination(deg)": 53.0,
        "Latitude(deg)": -52.62025457029882,
        "Longitude(deg)": -5.880444360863754,
        "Mean Anomaly(deg)": -83.20393982216427,
        "RAAN(deg)": 174.97406149612635,
        "Satellite Name": "Starlink Shell 1 785",
        "Satellite Number": 785,
        "Semi-Major Axis(m)": 6931778.249405717,
        "Time(s)": 500
    },
    {
        "Altitude(m)": 571600.1051485152,
        "Argument of Periapsis(deg)": 0.01777750245507308,
        "Eccentricity": 0.0,
        "Inclination(deg)": 53.0,
        "Latitude(deg)": -52.518967946743246,
        "Longitude(deg)": -4.910301336737688,
        "Mean Anomaly(deg)": -82.57710861860754,
        "RAAN(deg)": 174.9735427260489,
        "Satellite Name": "Starlink Shell 1 785",
        "Satellite Number": 785,
        "Semi-Major Axis(m)": 6931778.249405717,
        "Time(s)": 510
    },
    {
        "Altitude(m)": 571557.425964914,
        "Argument of Periapsis(deg)": 0.018126080934584315,
        "Eccentricity": 0.0,
        "Inclination(deg)": 53.0,
        "Latitude(deg)": -52.40908049592842,
        "Longitude(deg)": -3.944987534793315,
        "Mean Anomaly(deg)": -81.9502774150508,
        "RAAN(deg)": 174.9730239559714,
        "Satellite Name": "Starlink Shell 1 785",
        "Satellite Number": 785,
        "Semi-Major Axis(m)": 6931778.249405717,
        "Time(s)": 520
    },
    {
        "Altitude(m)": 571511.3800621711,
        "Argument of Periapsis(deg)": 0.018474659414095554,
        "Eccentricity": 0.0,
        "Inclination(deg)": 53.0,
        "Latitude(deg)": -52.290668014965235,
        "Longitude(deg)": -2.984847678398477,
        "Mean Anomaly(deg)": -81.3234462114941,
        "RAAN(deg)": 174.97250518589397,
        "Satellite Name": "Starlink Shell 1 785",
        "Satellite Number": 785,
        "Semi-Major Axis(m)": 6931778.249405717,
        "Time(s)": 530
    },
    {
        "Altitude(m)": 571461.9857827697,
        "Argument of Periapsis(deg)": 0.018823237893606792,
        "Eccentricity": 0.0,
        "Inclination(deg)": 53.0,
        "Latitude(deg)": -52.16381120292059,
        "Longitude(deg)": -2.0302132580097605,
        "Mean Anomaly(deg)": -80.69661500793741,
        "RAAN(deg)": 174.97198641581647,
        "Satellite Name": "Starlink Shell 1 785",
        "Satellite Number": 785,
        "Semi-Major Axis(m)": 6931778.249405717,
        "Time(s)": 540
    },
    {
        "Altitude(m)": 571409.262801467,
        "Argument of Periapsis(deg)": 0.019171816373118027,
        "Eccentricity": 0.0,
        "Inclination(deg)": 53.0,
        "Latitude(deg)": -52.02859540522429,
        "Longitude(deg)": -1.0814014247815924,
        "Mean Anomaly(deg)": -80.06978380438068,
        "RAAN(deg)": 174.971467645739,
        "Satellite Name": "Starlink Shell 1 785",
        "Satellite Number": 785,
        "Semi-Major Axis(m)": 6931778.249405717,
        "Time(s)": 550
    },
    {
        "Altitude(m)": 571353.2321168245,
        "Argument of Periapsis(deg)": 0.019520394852629266,
        "Eccentricity": 0.0,
        "Inclination(deg)": 53.0,
        "Latitude(deg)": -51.88511034956796,
        "Longitude(deg)": -0.1387139703955417,
        "Mean Anomaly(deg)": -79.44295260082403,
        "RAAN(deg)": 174.97094887566152,
        "Satellite Name": "Starlink Shell 1 785",
        "Satellite Number": 785,
        "Semi-Major Axis(m)": 6931778.249405717,
        "Time(s)": 560
    }
]